CCSDS_OMM_VERS = 2.0
CREATION_DATE  = 
ORIGINATOR     = 

OBJECT_NAME    = ATLAS CENTAUR R/B
OBJECT_ID      = 1972-065B
CENTER_NAME    = EARTH
REF_FRAME      = TEME
TIME_SYSTEM    = UTC
MEAN_ELEMENT_THEORY = SGP/SGP4

EPOCH          = 2026-04-02T11:25:49.543104
MEAN_MOTION    = 14.77758247
ECCENTRICITY   = .00338057
INCLINATION    = 35.0007
RA_OF_ASC_NODE = 166.3462
ARG_OF_PERICENTER = 211.3969
MEAN_ANOMALY   = 148.4712

EPHEMERIS_TYPE = 0
CLASSIFICATION_TYPE = U
NORAD_CAT_ID   = 6155
ELEMENT_SET_NO = 999
REV_AT_EPOCH   = 84478
BSTAR          = .25506021E-3
MEAN_MOTION_DOT = .1855E-4
MEAN_MOTION_DDOT = 0

CCSDS_OMM_VERS = 2.0
CREATION_DATE  = 
ORIGINATOR     = 

OBJECT_NAME    = SL-8 R/B
OBJECT_ID      = 1975-112B
CENTER_NAME    = EARTH
REF_FRAME      = TEME
TIME_SYSTEM    = UTC
MEAN_ELEMENT_THEORY = SGP/SGP4

EPOCH          = 2026-04-02T15:21:38.632608
MEAN_MOTION    = 14.38217460
ECCENTRICITY   = .00146569
INCLINATION    = 74.0624
RA_OF_ASC_NODE = 334.8579
ARG_OF_PERICENTER = 58.3368
MEAN_ANOMALY   = 301.9214

EPHEMERIS_TYPE = 0
CLASSIFICATION_TYPE = U
NORAD_CAT_ID   = 8459
ELEMENT_SET_NO = 999
REV_AT_EPOCH   = 63531
BSTAR          = .97155714E-4
MEAN_MOTION_DOT = .269E-5
MEAN_MOTION_DDOT = 0

CCSDS_OMM_VERS = 2.0
CREATION_DATE  = 
ORIGINATOR     = 

OBJECT_NAME    = SL-3 R/B
OBJECT_ID      = 1977-057B
CENTER_NAME    = EARTH
REF_FRAME      = TEME
TIME_SYSTEM    = UTC
MEAN_ELEMENT_THEORY = SGP/SGP4

EPOCH          = 2026-04-02T19:10:57.774720
MEAN_MOTION    = 15.46210787
ECCENTRICITY   = .0007103
INCLINATION    = 97.5797
RA_OF_ASC_NODE = 265.7985
ARG_OF_PERICENTER = 187.0239
MEAN_ANOMALY   = 173.0911

EPHEMERIS_TYPE = 0
CLASSIFICATION_TYPE = U
NORAD_CAT_ID   = 10114
ELEMENT_SET_NO = 999
REV_AT_EPOCH   = 67205
BSTAR          = .43655E-3
MEAN_MOTION_DOT = .21404E-3
MEAN_MOTION_DDOT = 0

CCSDS_OMM_VERS = 2.0
CREATION_DATE  = 
ORIGINATOR     = 

OBJECT_NAME    = SEASAT 1
OBJECT_ID      = 1978-064A
CENTER_NAME    = EARTH
REF_FRAME      = TEME
TIME_SYSTEM    = UTC
MEAN_ELEMENT_THEORY = SGP/SGP4

EPOCH          = 2026-04-02T11:58:08.950080
MEAN_MOTION    = 14.46181025
ECCENTRICITY   = .00027077
INCLINATION    = 108.0069
RA_OF_ASC_NODE = 175.4555
ARG_OF_PERICENTER = 273.8609
MEAN_ANOMALY   = 86.2227

EPHEMERIS_TYPE = 0
CLASSIFICATION_TYPE = U
NORAD_CAT_ID   = 10967
ELEMENT_SET_NO = 999
REV_AT_EPOCH   = 50995
BSTAR          = .16297753E-3
MEAN_MOTION_DOT = .446E-5
MEAN_MOTION_DDOT = 0

CCSDS_OMM_VERS = 2.0
CREATION_DATE  = 
ORIGINATOR     = 

OBJECT_NAME    = SL-14 R/B
OBJECT_ID      = 1979-011B
CENTER_NAME    = EARTH
REF_FRAME      = TEME
TIME_SYSTEM    = UTC
MEAN_ELEMENT_THEORY = SGP/SGP4

EPOCH          = 2026-04-02T15:47:59.049312
MEAN_MOTION    = 14.91941010
ECCENTRICITY   = .0015487
INCLINATION    = 82.5217
RA_OF_ASC_NODE = 73.8196
ARG_OF_PERICENTER = 343.2486
MEAN_ANOMALY   = 16.8220

EPHEMERIS_TYPE = 0
CLASSIFICATION_TYPE = U
NORAD_CAT_ID   = 11267
ELEMENT_SET_NO = 999
REV_AT_EPOCH   = 53235
BSTAR          = .86029E-4
MEAN_MOTION_DOT = .897E-5
MEAN_MOTION_DDOT = 0

CCSDS_OMM_VERS = 2.0
CREATION_DATE  = 
ORIGINATOR     = 

OBJECT_NAME    = SL-8 R/B
OBJECT_ID      = 1979-089B
CENTER_NAME    = EARTH
REF_FRAME      = TEME
TIME_SYSTEM    = UTC
MEAN_ELEMENT_THEORY = SGP/SGP4

EPOCH          = 2026-04-02T21:10:44.879232
MEAN_MOTION    = 14.42367650
ECCENTRICITY   = .0016584
INCLINATION    = 74.0699
RA_OF_ASC_NODE = 46.2566
ARG_OF_PERICENTER = 215.6800
MEAN_ANOMALY   = 144.3249

EPHEMERIS_TYPE = 0
CLASSIFICATION_TYPE = U
NORAD_CAT_ID   = 11574
ELEMENT_SET_NO = 999
REV_AT_EPOCH   = 43959
BSTAR          = .15699E-3
MEAN_MOTION_DOT = .493E-5
MEAN_MOTION_DDOT = 0

CCSDS_OMM_VERS = 2.0
CREATION_DATE  = 
ORIGINATOR     = 

OBJECT_NAME    = SL-14 R/B
OBJECT_ID      = 1980-005B
CENTER_NAME    = EARTH
REF_FRAME      = TEME
TIME_SYSTEM    = UTC
MEAN_ELEMENT_THEORY = SGP/SGP4

EPOCH          = 2026-04-02T19:42:45.993888
MEAN_MOTION    = 14.90959964
ECCENTRICITY   = .0017231
INCLINATION    = 82.5108
RA_OF_ASC_NODE = 284.3389
ARG_OF_PERICENTER = 83.7194
MEAN_ANOMALY   = 276.5987

EPHEMERIS_TYPE = 0
CLASSIFICATION_TYPE = U
NORAD_CAT_ID   = 11672
ELEMENT_SET_NO = 999
REV_AT_EPOCH   = 48008
BSTAR          = .85902E-4
MEAN_MOTION_DOT = .876E-5
MEAN_MOTION_DDOT = 0

CCSDS_OMM_VERS = 2.0
CREATION_DATE  = 
ORIGINATOR     = 

OBJECT_NAME    = SL-8 R/B
OBJECT_ID      = 1981-003B
CENTER_NAME    = EARTH
REF_FRAME      = TEME
TIME_SYSTEM    = UTC
MEAN_ELEMENT_THEORY = SGP/SGP4

EPOCH          = 2026-04-02T18:25:27.655680
MEAN_MOTION    = 15.12081324
ECCENTRICITY   = .0260209
INCLINATION    = 82.9329
RA_OF_ASC_NODE = 267.7385
ARG_OF_PERICENTER = 94.9792
MEAN_ANOMALY   = 268.1197

EPHEMERIS_TYPE = 0
CLASSIFICATION_TYPE = U
NORAD_CAT_ID   = 12139
ELEMENT_SET_NO = 999
REV_AT_EPOCH   = 31831
BSTAR          = .68158E-3
MEAN_MOTION_DOT = .27377E-3
MEAN_MOTION_DDOT = 0

CCSDS_OMM_VERS = 2.0
CREATION_DATE  = 
ORIGINATOR     = 

OBJECT_NAME    = SL-3 R/B
OBJECT_ID      = 1981-046B
CENTER_NAME    = EARTH
REF_FRAME      = TEME
TIME_SYSTEM    = UTC
MEAN_ELEMENT_THEORY = SGP/SGP4

EPOCH          = 2026-04-02T18:57:14.522688
MEAN_MOTION    = 15.42613404
ECCENTRICITY   = .0018095
INCLINATION    = 81.2285
RA_OF_ASC_NODE = 260.7859
ARG_OF_PERICENTER = 296.5537
MEAN_ANOMALY   = 63.3851

EPHEMERIS_TYPE = 0
CLASSIFICATION_TYPE = U
NORAD_CAT_ID   = 12465
ELEMENT_SET_NO = 999
REV_AT_EPOCH   = 44214
BSTAR          = .47118E-3
MEAN_MOTION_DOT = .20671E-3
MEAN_MOTION_DDOT = 0

CCSDS_OMM_VERS = 2.0
CREATION_DATE  = 
ORIGINATOR     = 

OBJECT_NAME    = SL-3 R/B
OBJECT_ID      = 1981-103B
CENTER_NAME    = EARTH
REF_FRAME      = TEME
TIME_SYSTEM    = UTC
MEAN_ELEMENT_THEORY = SGP/SGP4

EPOCH          = 2026-04-02T18:37:47.206848
MEAN_MOTION    = 15.21673408
ECCENTRICITY   = .0013054
INCLINATION    = 81.1616
RA_OF_ASC_NODE = 185.1767
ARG_OF_PERICENTER = 201.2262
MEAN_ANOMALY   = 158.8430

EPHEMERIS_TYPE = 0
CLASSIFICATION_TYPE = U
NORAD_CAT_ID   = 12904
ELEMENT_SET_NO = 999
REV_AT_EPOCH   = 97689
BSTAR          = .37792E-3
MEAN_MOTION_DOT = .8591E-4
MEAN_MOTION_DDOT = 0

CCSDS_OMM_VERS = 2.0
CREATION_DATE  = 
ORIGINATOR     = 

OBJECT_NAME    = SL-3 R/B
OBJECT_ID      = 1982-013B
CENTER_NAME    = EARTH
REF_FRAME      = TEME
TIME_SYSTEM    = UTC
MEAN_ELEMENT_THEORY = SGP/SGP4

EPOCH          = 2026-04-02T20:10:18.480288
MEAN_MOTION    = 15.22239112
ECCENTRICITY   = .002355
INCLINATION    = 81.1725
RA_OF_ASC_NODE = 132.4601
ARG_OF_PERICENTER = 98.6483
MEAN_ANOMALY   = 261.7418

EPHEMERIS_TYPE = 0
CLASSIFICATION_TYPE = U
NORAD_CAT_ID   = 13068
ELEMENT_SET_NO = 999
REV_AT_EPOCH   = 40802
BSTAR          = .28313E-3
MEAN_MOTION_DOT = .6585E-4
MEAN_MOTION_DDOT = 0

CCSDS_OMM_VERS = 2.0
CREATION_DATE  = 
ORIGINATOR     = 

OBJECT_NAME    = SL-3 R/B
OBJECT_ID      = 1982-039B
CENTER_NAME    = EARTH
REF_FRAME      = TEME
TIME_SYSTEM    = UTC
MEAN_ELEMENT_THEORY = SGP/SGP4

EPOCH          = 2026-04-02T18:36:06.561216
MEAN_MOTION    = 15.10223389
ECCENTRICITY   = .0028279
INCLINATION    = 81.1563
RA_OF_ASC_NODE = 188.1888
ARG_OF_PERICENTER = 244.2979
MEAN_ANOMALY   = 115.5326

EPHEMERIS_TYPE = 0
CLASSIFICATION_TYPE = U
NORAD_CAT_ID   = 13154
ELEMENT_SET_NO = 999
REV_AT_EPOCH   = 38527
BSTAR          = .26402E-3
MEAN_MOTION_DOT = .4378E-4
MEAN_MOTION_DDOT = 0

