ATLAS CENTAUR R/B       
1 06155U 72065B   26092.47626786  .00001855  00000+0  25506-3 0  9991
2 06155  35.0007 166.3462 0033805 211.3969 148.4712 14.77758247844782
SL-8 R/B                
1 08459U 75112B   26092.64003047  .00000269  00000+0  97156-4 0  9993
2 08459  74.0624 334.8579 0014656  58.3368 301.9214 14.38217460635319
SL-3 R/B                
1 10114U 77057B   26092.79927980  .00021404  00000+0  43655-3 0  9999
2 10114  97.5797 265.7985 0007103 187.0239 173.0911 15.46210787672059
SEASAT 1                
1 10967U 78064A   26092.49871470  .00000446  00000+0  16298-3 0  9999
2 10967 108.0069 175.4555 0002707 273.8609  86.2227 14.46181025509959
SL-14 R/B               
1 11267U 79011B   26092.65832233  .00000897  00000+0  86029-4 0  9998
2 11267  82.5217  73.8196 0015487 343.2486  16.8220 14.91941010532350
SL-8 R/B                
1 11574U 79089B   26092.88246388  .00000493  00000+0  15699-3 0  9995
2 11574  74.0699  46.2566 0016584 215.6800 144.3249 14.42367650439595
SL-14 R/B               
1 11672U 80005B   26092.82136567  .00000876  00000+0  85902-4 0  9995
2 11672  82.5108 284.3389 0017231  83.7194 276.5987 14.90959964480086
SL-8 R/B                
1 12139U 81003B   26092.76768120  .00027377  00000+0  68158-3 0  9990
2 12139  82.9329 267.7385 0260209  94.9792 268.1197 15.12081324318315
SL-3 R/B                
1 12465U 81046B   26092.78975142  .00020671  00000+0  47118-3 0  9998
2 12465  81.2285 260.7859 0018095 296.5537  63.3851 15.42613404442144
SL-3 R/B                
1 12904U 81103B   26092.77624082  .00008591  00000+0  37792-3 0  9997
2 12904  81.1616 185.1767 0013054 201.2262 158.8430 15.21673408976899
SL-3 R/B                
1 13068U 82013B   26092.84049167  .00006585  00000+0  28313-3 0  9993
2 13068  81.1725 132.4601 0023550  98.6483 261.7418 15.22239112408025
SL-3 R/B                
1 13154U 82039B   26092.77507594  .00004378  00000+0  26402-3 0  9997
2 13154  81.1563 188.1888 0028279 244.2979 115.5326 15.10223389385279
